NORAD_CAT_ID,OBJECT_NAME,OBJECT_TYPE,EPOCH,MEAN_MOTION,ECCENTRICITY,INCLINATION,RA_OF_ASC_NODE,ARG_OF_PERICENTER,MEAN_ANOMALY,BSTAR,MEAN_MOTION_DOT,MEAN_MOTION_DDOT,TLE_LINE0,TLE_LINE1,TLE_LINE2,SEMIMAJOR_AXIS,PERIOD,APOGEE,PERIGEE,DECAYED
53286.0,STARLINK-4165,PAYLOAD,2022-12-23 09:58:47,15.08828646,0.0002216,53.2191,46.6523,39.696,320.4194,0.00016254,2.299e-05,0.0,0 STARLINK-4165,1 53286U 22086AW  22357.41583076  .00002299  00000-0  16254-3 0  9998,2 53286  53.2191  46.6523 0002216  39.6960 320.4194 15.08828646 24217,6917.915,95.438,541.313,538.247,0.0
53286.0,STARLINK-4165,PAYLOAD,2022-12-24 03:28:02,15.08830205,0.0002133,53.2189,43.3816,38.8671,321.2474,0.00012113,1.64e-05,0.0,0 STARLINK-4165,1 53286U 22086AW  22358.14447435  .00001640  00000-0  12113-3 0  9996,2 53286  53.2189  43.3816 0002133  38.8671 321.2474 15.08830205 24169,6917.91,95.438,541.251,538.3,0.0
53286.0,STARLINK-4165,PAYLOAD,2022-12-24 09:49:34,15.08835706,0.0002145,53.2198,42.1925,39.1084,321.0063,0.00015116,2.118e-05,0.0,0 STARLINK-4165,1 53286U 22086AW  22358.40942944  .00002118  00000-0  15116-3 0  9997,2 53286  53.2198  42.1925 0002145  39.1084 321.0063 15.08835706 24367,6917.894,95.438,541.242,538.275,0.0
53286.0,STARLINK-4165,PAYLOAD,2022-12-24 13:00:20,15.08842172,0.0002065,53.2192,41.5974,35.2446,324.8683,0.00015509,2.181e-05,0.0,0 STARLINK-4165,1 53286U 22086AW  22358.54190715  .00002181  00000-0  15509-3 0  9999,2 53286  53.2192  41.5974 0002065  35.2446 324.8683 15.08842172 24227,6917.874,95.437,541.1669999999998,538.31,0.0
53286.0,STARLINK-4165,PAYLOAD,2022-12-25 11:15:45,15.08837761,0.000217,53.22,37.4357,36.9809,323.1332,5.0606e-05,5.17e-06,0.0,0 STARLINK-4165,1 53286U 22086AW  22359.46927254  .00000517  00000-0  50606-4 0  9996,2 53286  53.2200  37.4357 0002170  36.9809 323.1332 15.08837761 24360,6917.887,95.438,541.253,538.251,0.0
53286.0,STARLINK-4165,PAYLOAD,2022-12-25 19:12:41,15.08832457,0.0002206,53.2199,35.9489,38.9355,321.1796,0.00011719,1.577e-05,0.0,0 STARLINK-4165,1 53286U 22086AW  22359.80047486  .00001577  00000-0  11719-3 0  9992,2 53286  53.2199  35.9489 0002206  38.9355 321.1796 15.08832457 24576,6917.903,95.438,541.295,538.242,0.0
53286.0,STARLINK-4165,PAYLOAD,2022-12-26 12:41:55,15.08841952,0.0002248,53.2205,32.6782,41.574,318.5423,-1.0748e-05,-4.59e-06,0.0,0 STARLINK-4165,1 53286U 22086AW  22360.52911312 -.00000459  00000-0 -10748-4 0  9993,2 53286  53.2205  32.6782 0002248  41.5740 318.5423 15.08841952 24520,6917.874,95.437,541.295,538.184,0.0
53286.0,STARLINK-4165,PAYLOAD,2022-12-27 10:57:18,15.08845557,0.0002378,53.2197,28.5147,39.809,320.3077,0.00012273,1.666e-05,0.0,0 STARLINK-4165,1 53286U 22086AW  22361.45646758  .00001666  00000-0  12273-3 0  9998,2 53286  53.2197  28.5147 0002378  39.8090 320.3077 15.08845557 24825,6917.863,95.437,541.373,538.0830000000002,0.0
53286.0,STARLINK-4165,PAYLOAD,2022-12-27 18:54:13,15.08853334,0.0002339,53.2198,27.0273,39.4498,320.6665,0.00016384,2.321e-05,0.0,0 STARLINK-4165,1 53286U 22086AW  22361.78765991  .00002321  00000-0  16384-3 0  9991,2 53286  53.2198  27.0273 0002339  39.4498 320.6665 15.08853334 24878,6917.84,95.437,541.323,538.087,0.0
53286.0,STARLINK-4165,PAYLOAD,2022-12-28 01:15:46,15.08853456,0.0002289,53.2198,25.8379,38.0908,322.0245,0.00020681,3.006e-05,0.0,0 STARLINK-4165,1 53286U 22086AW  22362.05261738  .00003006  00000-0  20681-3 0  9998,2 53286  53.2198  25.8379 0002289  38.0908 322.0245 15.08853456 24916,6917.839,95.437,541.288,538.121,0.0
53286.0,STARLINK-4165,PAYLOAD,2022-12-29 01:06:34,15.08835021,0.0002454,53.2189,21.3774,40.0019,320.1153,2.9211000000000007e-06,-2.42e-06,0.0,0 STARLINK-4165,1 53286U 22086AW  22363.04623456 -.00000242  00000-0  29211-5 0  9997,2 53286  53.2189  21.3774 0002454  40.0019 320.1153 15.08835021 24900,6917.896,95.438,541.4580000000002,538.063,0.0
53286.0,STARLINK-4165,PAYLOAD,2022-12-29 07:28:07,15.08837994,0.0002294,53.22,20.1877,36.2605,323.8543,-5.894e-05,-1.226e-05,0.0,0 STARLINK-4165,1 53286U 22086AW  22363.31119543 -.00001226  00000-0 -58940-4 0  9998,2 53286  53.2200  20.1877 0002294  36.2605 323.8543 15.08837994 25102,6917.887,95.438,541.3380000000002,538.165,0.0
53286.0,STARLINK-4165,PAYLOAD,2022-12-29 18:35:50,15.08829174,0.0002254999999999,53.2183,18.1059,37.7651,322.3499,-0.00016772,-2.956e-05,0.0,0 STARLINK-4165,1 53286U 22086AW  22363.77488597 -.00002956  00000-0 -16772-3 0  9993,2 53286  53.2183  18.1059 0002255  37.7651 322.3499 15.08829174 25010,6917.913000000001,95.438,541.3380000000002,538.2180000000002,0.0
53286.0,STARLINK-4165,PAYLOAD,2022-12-30 07:18:54,15.08834194,0.000213,53.2205,15.727,33.6994,326.4133,-3.6099e-05,-8.63e-06,0.0,0 STARLINK-4165,1 53286U 22086AW  22364.30480119 -.00000863  00000-0 -36099-4 0  9995,2 53286  53.2205  15.7270 0002130  33.6994 326.4133 15.08834194 25096,6917.898,95.438,541.237,538.29,0.0
53286.0,STARLINK-4165,PAYLOAD,2022-12-31 00:48:07,15.08846983,0.0002451,53.2196,12.4573,22.7303,337.3797,0.0002484,3.668e-05,0.0,0 STARLINK-4165,1 53286U 22086AW  22365.03342543  .00003668  00000-0  24840-3 0  9998,2 53286  53.2196  12.4573 0002451  22.7303 337.3797 15.08846983 25203,6917.859,95.437,541.42,538.028,0.0
53286.0,STARLINK-4165,PAYLOAD,2022-12-31 07:09:39,15.08857158,0.000233,53.2191,11.2674,30.3676,329.7451,0.00033031,4.975e-05,0.0,0 STARLINK-4165,1 53286U 22086AW  22365.29837530  .00004975  00000-0  33031-3 0  9995,2 53286  53.2191  11.2674 0002330  30.3676 329.7451 15.08857158 25243,6917.828,95.436,541.305,538.081,0.0
53286.0,STARLINK-4165,PAYLOAD,2023-01-01 07:00:29,15.088280599999996,0.0002292,53.2185,6.8059,40.3884,319.7278,-1.618e-05,-5.46e-06,0.0,0 STARLINK-4165,1 53286U 22086AW  23001.29200290 -.00000546  00000-0 -16180-4 0  9999,2 53286  53.2185   6.8059 0002292  40.3884 319.7278 15.08828060 25394,6917.917,95.438,541.367,538.196,0.0
53286.0,STARLINK-4165,PAYLOAD,2023-01-01 10:11:15,15.08833392,0.0002348,53.2191,6.2126,36.9556,323.1597,-0.00021343,-3.683e-05,0.0,0 STARLINK-4165,1 53286U 22086AW  23001.42448447 -.00003683  00000-0 -21343-3 0  9993,2 53286  53.2191   6.2126 0002348  36.9556 323.1597 15.08833392 25576,6917.901,95.438,541.39,538.141,0.0
53286.0,STARLINK-4165,PAYLOAD,2023-01-02 06:51:15,15.08844883,0.0002440999999999,53.2188,2.3473,39.5565,320.5605,-0.00011737,-2.156e-05,0.0,0 STARLINK-4165,1 53286U 22086AW  23002.28559867 -.00002156  00000-0 -11737-3 0  9997,2 53286  53.2188   2.3473 0002441  39.5565 320.5605 15.08844883 25542,6917.865,95.437,541.419,538.0419999999998,0.0
53286.0,STARLINK-4165,PAYLOAD,2023-01-02 10:02:01,15.08850331,0.0002444,53.2195,1.7518,43.3769,316.7415,-6.5329e-05,-1.328e-05,0.0,0 STARLINK-4165,1 53286U 22086AW  23002.41807305 -.00001328  00000-0 -65329-4 0  9992,2 53286  53.2195   1.7518 0002444  43.3769 316.7415 15.08850331 25568,6917.849,95.437,541.405,538.023,0.0
53286.0,STARLINK-4165,PAYLOAD,2023-01-02 16:23:34,15.08841854,0.0002427,53.2189,0.5624,40.2864,319.8307,4.5491e-05,4.36e-06,0.0,0 STARLINK-4165,1 53286U 22086AW  23002.68303567  .00000436  00000-0  45491-4 0  9997,2 53286  53.2189   0.5624 0002427  40.2864 319.8307 15.08841854 25765,6917.875,95.437,541.419,538.061,0.0
53286.0,STARLINK-4165,PAYLOAD,2023-01-02 22:45:07,15.08836449,0.0002371,53.2188,359.3732,45.1552,314.9633,0.00018854,2.713e-05,0.0,0 STARLINK-4165,1 53286U 22086AW  23002.94799988  .00002713  00000-0  18854-3 0  9994,2 53286  53.2188 359.3732 0002371  45.1552 314.9633 15.08836449 25644,6917.891,95.438,541.396,538.116,0.0
53286.0,STARLINK-4165,PAYLOAD,2023-01-03 09:52:49,15.08842429,0.0002434,53.219,357.2919,42.9965,317.1218,0.00032337,4.862e-05,0.0,0 STARLINK-4165,1 53286U 22086AW  23003.41168188  .00004862  00000-0  32337-3 0  9998,2 53286  53.2190 357.2919 0002434  42.9965 317.1218 15.08842429 25878,6917.873000000001,95.437,541.422,538.054,0.0
53286.0,STARLINK-4165,PAYLOAD,2023-01-03 16:14:22,15.08833342,0.0002437,53.2192,356.1026,41.5724,318.5453,3.2598e-05,2.3e-06,0.0,0 STARLINK-4165,1 53286U 22086AW  23003.67664495  .00000230  00000-0  32598-4 0  9993,2 53286  53.2192 356.1026 0002437  41.5724 318.5453 15.08833342 25755,6917.901,95.438,541.452,538.08,0.0
53286.0,STARLINK-4165,PAYLOAD,2023-01-04 08:08:13,15.08837928,0.0002427,53.2196,353.1291,44.5478,315.5709,7.5489e-05,9.13e-06,0.0,0 STARLINK-4165,1 53286U 22086AW  23004.33904700  .00000913  00000-0  75489-4 0  9997,2 53286  53.2196 353.1291 0002427  44.5478 315.5709 15.08837928 26013,6917.887,95.438,541.431,538.073,0.0
53286.0,STARLINK-4165,PAYLOAD,2023-01-04 22:26:41,15.08856121,0.0002453,53.2197,350.4526,42.9378,317.1806,0.0003198,4.807e-05,0.0,0 STARLINK-4165,1 53286U 22086AW  23004.93519695  .00004807  00000-0  31980-3 0  9991,2 53286  53.2197 350.4526 0002453  42.9378 317.1806 15.08856121 26107,6917.831,95.437,541.393,537.999,0.0
53286.0,STARLINK-4165,PAYLOAD,2023-01-05 00:02:04,15.08855985,0.0002414,53.2194,350.155,42.2551,317.8627,0.0004105,6.254e-05,0.0,0 STARLINK-4165,1 53286U 22086AW  23005.00143817  .00006254  00000-0  41050-3 0  9996,2 53286  53.2194 350.1550 0002414  42.2551 317.8627 15.08855985 25958,6917.831999999999,95.437,541.366,538.0269999999998,0.0
53286.0,STARLINK-4165,PAYLOAD,2023-01-05 03:12:50,15.08856991,0.0002398,53.2193,349.5603,42.1071,318.0105,0.00042183,6.435e-05,0.0,0 STARLINK-4165,1 53286U 22086AW  23005.13391726  .00006435  00000-0  42183-3 0  9993,2 53286  53.2193 349.5603 0002398  42.1071 318.0105 15.08856991 26138,6917.828,95.436,541.352,538.035,0.0
53286.0,STARLINK-4165,PAYLOAD,2023-01-05 06:23:36,15.08860044,0.0002381999999999,53.219,348.9655,40.7107,319.4063,0.00050364,7.741e-05,0.0,0 STARLINK-4165,1 53286U 22086AW  23005.26639585  .00007741  00000-0  50364-3 0  9996,2 53286  53.2190 348.9655 0002382  40.7107 319.4063 15.08860044 26156,6917.819,95.436,541.332,538.036,0.0
